[{"OBJECT_NAME":"SHIJIAN-6 02B (SJ-6 02B)","OBJECT_ID":"2006-046B","EPOCH":"2026-04-25T13:25:02.504064","MEAN_MOTION":15.01211848,"ECCENTRICITY":0.0010989,"INCLINATION":97.714,"RA_OF_ASC_NODE":144.9498,"ARG_OF_PERICENTER":241.8925,"MEAN_ANOMALY":118.1188,"EPHEMERIS_TYPE":0,"CLASSIFICATION_TYPE":"U","NORAD_CAT_ID":29506,"ELEMENT_SET_NO":999,"REV_AT_EPOCH":6284,"BSTAR":0.00014938,"MEAN_MOTION_DOT":1.858e-5,"MEAN_MOTION_DDOT":0},{"OBJECT_NAME":"FGRST (GLAST)","OBJECT_ID":"2008-029A","EPOCH":"2026-04-25T13:53:41.974656","MEAN_MOTION":15.23657127,"ECCENTRICITY":0.0008712,"INCLINATION":25.5812,"RA_OF_ASC_NODE":209.6846,"ARG_OF_PERICENTER":67.841,"MEAN_ANOMALY":292.3052,"EPHEMERIS_TYPE":0,"CLASSIFICATION_TYPE":"U","NORAD_CAT_ID":33053,"ELEMENT_SET_NO":999,"REV_AT_EPOCH":98780,"BSTAR":0.00011873,"MEAN_MOTION_DOT":3.267e-5,"MEAN_MOTION_DDOT":0},{"OBJECT_NAME":"SDO","OBJECT_ID":"2010-005A","EPOCH":"2026-04-25T09:58:43.614048","MEAN_MOTION":1.0027261,"ECCENTRICITY":0.000112,"INCLINATION":34.5445,"RA_OF_ASC_NODE":87.1361,"ARG_OF_PERICENTER":34.5839,"MEAN_ANOMALY":139.6162,"EPHEMERIS_TYPE":0,"CLASSIFICATION_TYPE":"U","NORAD_CAT_ID":36395,"ELEMENT_SET_NO":999,"REV_AT_EPOCH":5953,"BSTAR":0,"MEAN_MOTION_DOT":-6.0e-7,"MEAN_MOTION_DDOT":0},{"OBJECT_NAME":"CRYOSAT 2","OBJECT_ID":"2010-013A","EPOCH":"2026-04-25T20:09:41.677344","MEAN_MOTION":14.51905123,"ECCENTRICITY":0.0002666,"INCLINATION":92.0288,"RA_OF_ASC_NODE":264.5967,"ARG_OF_PERICENTER":93.0418,"MEAN_ANOMALY":267.1095,"EPHEMERIS_TYPE":0,"CLASSIFICATION_TYPE":"U","NORAD_CAT_ID":36508,"ELEMENT_SET_NO":999,"REV_AT_EPOCH":85048,"BSTAR":5.6206e-5,"MEAN_MOTION_DOT":2.29e-6,"MEAN_MOTION_DDOT":0},{"OBJECT_NAME":"X-SAT","OBJECT_ID":"2011-015C","EPOCH":"2026-04-25T20:26:52.709280","MEAN_MOTION":14.25190071,"ECCENTRICITY":0.0014799,"INCLINATION":98.3487,"RA_OF_ASC_NODE":95.3794,"ARG_OF_PERICENTER":132.8242,"MEAN_ANOMALY":227.4184,"EPHEMERIS_TYPE":0,"CLASSIFICATION_TYPE":"U","NORAD_CAT_ID":37389,"ELEMENT_SET_NO":999,"REV_AT_EPOCH":78022,"BSTAR":0.00011471,"MEAN_MOTION_DOT":2.29e-6,"MEAN_MOTION_DDOT":0},{"OBJECT_NAME":"GCOM-W1 (SHIZUKU)","OBJECT_ID":"2012-025A","EPOCH":"2026-04-25T20:15:22.687776","MEAN_MOTION":14.57119336,"ECCENTRICITY":0.0001271,"INCLINATION":98.1993,"RA_OF_ASC_NODE":57.2026,"ARG_OF_PERICENTER":94.0637,"MEAN_ANOMALY":328.2771,"EPHEMERIS_TYPE":0,"CLASSIFICATION_TYPE":"U","NORAD_CAT_ID":38337,"ELEMENT_SET_NO":999,"REV_AT_EPOCH":74141,"BSTAR":0.00012294,"MEAN_MOTION_DOT":5.09e-6,"MEAN_MOTION_DDOT":0},{"OBJECT_NAME":"NUSTAR","OBJECT_ID":"2012-031A","EPOCH":"2026-04-25T22:00:01.998720","MEAN_MOTION":15.08285701,"ECCENTRICITY":0.0007387,"INCLINATION":6.0262,"RA_OF_ASC_NODE":66.0676,"ARG_OF_PERICENTER":45.4524,"MEAN_ANOMALY":158.5474,"EPHEMERIS_TYPE":0,"CLASSIFICATION_TYPE":"U","NORAD_CAT_ID":38358,"ELEMENT_SET_NO":999,"REV_AT_EPOCH":441,"BSTAR":0.00089434,"MEAN_MOTION_DOT":0.00015175,"MEAN_MOTION_DDOT":0},{"OBJECT_NAME":"NEOSSAT","OBJECT_ID":"2013-009D","EPOCH":"2026-04-25T17:38:48.336288","MEAN_MOTION":14.35807441,"ECCENTRICITY":0.0011863,"INCLINATION":98.417,"RA_OF_ASC_NODE":297.0176,"ARG_OF_PERICENTER":47.5187,"MEAN_ANOMALY":312.7,"EPHEMERIS_TYPE":0,"CLASSIFICATION_TYPE":"U","NORAD_CAT_ID":39089,"ELEMENT_SET_NO":999,"REV_AT_EPOCH":68921,"BSTAR":5.7776e-5,"MEAN_MOTION_DOT":1.25e-6,"MEAN_MOTION_DDOT":0},{"OBJECT_NAME":"BRITE-AUSTRIA","OBJECT_ID":"2013-009F","EPOCH":"2026-04-25T11:33:07.212672","MEAN_MOTION":14.3652013,"ECCENTRICITY":0.0010956,"INCLINATION":98.3985,"RA_OF_ASC_NODE":296.2244,"ARG_OF_PERICENTER":42.985,"MEAN_ANOMALY":317.2191,"EPHEMERIS_TYPE":0,"CLASSIFICATION_TYPE":"U","NORAD_CAT_ID":39091,"ELEMENT_SET_NO":999,"REV_AT_EPOCH":68948,"BSTAR":7.2827e-5,"MEAN_MOTION_DOT":1.71e-6,"MEAN_MOTION_DDOT":0},{"OBJECT_NAME":"IRIS","OBJECT_ID":"2013-033A","EPOCH":"2026-04-25T15:17:06.087264","MEAN_MOTION":14.85771907,"ECCENTRICITY":0.0025569,"INCLINATION":97.937,"RA_OF_ASC_NODE":315.0725,"ARG_OF_PERICENTER":128.9128,"MEAN_ANOMALY":231.4373,"EPHEMERIS_TYPE":0,"CLASSIFICATION_TYPE":"U","NORAD_CAT_ID":39197,"ELEMENT_SET_NO":999,"REV_AT_EPOCH":69257,"BSTAR":0.00011572,"MEAN_MOTION_DOT":9.55e-6,"MEAN_MOTION_DDOT":0},{"OBJECT_NAME":"HISAKI (SPRINT-A)","OBJECT_ID":"2013-049A","EPOCH":"2026-04-25T16:34:17.383008","MEAN_MOTION":13.55537782,"ECCENTRICITY":0.0136629,"INCLINATION":29.7186,"RA_OF_ASC_NODE":126.9034,"ARG_OF_PERICENTER":311.2903,"MEAN_ANOMALY":47.5975,"EPHEMERIS_TYPE":0,"CLASSIFICATION_TYPE":"U","NORAD_CAT_ID":39253,"ELEMENT_SET_NO":999,"REV_AT_EPOCH":62429,"BSTAR":9.2065e-5,"MEAN_MOTION_DOT":1.33e-6,"MEAN_MOTION_DDOT":0},{"OBJECT_NAME":"CASSIOPE","OBJECT_ID":"2013-055A","EPOCH":"2026-04-25T19:19:25.601088","MEAN_MOTION":15.21738812,"ECCENTRICITY":0.0303087,"INCLINATION":80.9136,"RA_OF_ASC_NODE":130.1441,"ARG_OF_PERICENTER":238.1417,"MEAN_ANOMALY":118.9992,"EPHEMERIS_TYPE":0,"CLASSIFICATION_TYPE":"U","NORAD_CAT_ID":39265,"ELEMENT_SET_NO":999,"REV_AT_EPOCH":65969,"BSTAR":0.00029655,"MEAN_MOTION_DOT":0.00025369,"MEAN_MOTION_DDOT":-4.0911e-7},{"OBJECT_NAME":"STSAT-3","OBJECT_ID":"2013-066G","EPOCH":"2026-04-25T20:05:01.394880","MEAN_MOTION":15.02445988,"ECCENTRICITY":0.0008731,"INCLINATION":97.6187,"RA_OF_ASC_NODE":86.6084,"ARG_OF_PERICENTER":192.7871,"MEAN_ANOMALY":167.3134,"EPHEMERIS_TYPE":0,"CLASSIFICATION_TYPE":"U","NORAD_CAT_ID":39422,"ELEMENT_SET_NO":999,"REV_AT_EPOCH":67634,"BSTAR":0.00025235,"MEAN_MOTION_DOT":3.288e-5,"MEAN_MOTION_DDOT":0},{"OBJECT_NAME":"SWARM B","OBJECT_ID":"2013-067A","EPOCH":"2026-04-25T19:41:03.130368","MEAN_MOTION":15.28237647,"ECCENTRICITY":0.0002374,"INCLINATION":87.7483,"RA_OF_ASC_NODE":358.2169,"ARG_OF_PERICENTER":91.3006,"MEAN_ANOMALY":268.8515,"EPHEMERIS_TYPE":0,"CLASSIFICATION_TYPE":"U","NORAD_CAT_ID":39451,"ELEMENT_SET_NO":999,"REV_AT_EPOCH":67524,"BSTAR":0.00013085,"MEAN_MOTION_DOT":3.632e-5,"MEAN_MOTION_DDOT":0},{"OBJECT_NAME":"SWARM A","OBJECT_ID":"2013-067B","EPOCH":"2026-04-25T20:57:53.862048","MEAN_MOTION":15.49842031,"ECCENTRICITY":0.0003694,"INCLINATION":87.3305,"RA_OF_ASC_NODE":75.6537,"ARG_OF_PERICENTER":89.4005,"MEAN_ANOMALY":270.7679,"EPHEMERIS_TYPE":0,"CLASSIFICATION_TYPE":"U","NORAD_CAT_ID":39452,"ELEMENT_SET_NO":999,"REV_AT_EPOCH":69814,"BSTAR":0.00023583,"MEAN_MOTION_DOT":0.0001318,"MEAN_MOTION_DDOT":0},{"OBJECT_NAME":"SWARM C","OBJECT_ID":"2013-067C","EPOCH":"2026-04-25T20:57:48.601152","MEAN_MOTION":15.49843384,"ECCENTRICITY":0.0003711,"INCLINATION":87.3307,"RA_OF_ASC_NODE":74.2349,"ARG_OF_PERICENTER":89.7083,"MEAN_ANOMALY":270.4603,"EPHEMERIS_TYPE":0,"CLASSIFICATION_TYPE":"U","NORAD_CAT_ID":39453,"ELEMENT_SET_NO":999,"REV_AT_EPOCH":69810,"BSTAR":0.00024009,"MEAN_MOTION_DOT":0.00013419,"MEAN_MOTION_DDOT":0},{"OBJECT_NAME":"BRITE-CA1 (TORONTO)","OBJECT_ID":"2014-033L","EPOCH":"2026-04-25T14:00:17.187264","MEAN_MOTION":14.72595446,"ECCENTRICITY":0.0080064,"INCLINATION":97.9656,"RA_OF_ASC_NODE":245.5081,"ARG_OF_PERICENTER":85.5228,"MEAN_ANOMALY":275.5121,"EPHEMERIS_TYPE":0,"CLASSIFICATION_TYPE":"U","NORAD_CAT_ID":40020,"ELEMENT_SET_NO":999,"REV_AT_EPOCH":63447,"BSTAR":0.00014187,"MEAN_MOTION_DOT":8.97e-6,"MEAN_MOTION_DDOT":0}]
