SHIJIAN-6 02B (SJ-6 02B)
1 29506U 06046B   26115.55905676  .00001858  00000+0  14938-3 0  9995
2 29506  97.7140 144.9498 0010989 241.8925 118.1188 15.01211848 62848
FGRST (GLAST)           
1 33053U 08029A   26115.57895804  .00003267  00000+0  11873-3 0  9994
2 33053  25.5812 209.6846 0008712  67.8410 292.3052 15.23657127987802
SDO                     
1 36395U 10005A   26115.41578257 -.00000060  00000+0  00000+0 0  9991
2 36395  34.5445  87.1361 0001120  34.5839 139.6162  1.00272610 59534
CRYOSAT 2               
1 36508U 10013A   26115.84006571  .00000229  00000+0  56206-4 0  9998
2 36508  92.0288 264.5967 0002666  93.0418 267.1095 14.51905123850483
X-SAT                   
1 37389U 11015C   26115.85199895  .00000229  00000+0  11471-3 0  9996
2 37389  98.3487  95.3794 0014799 132.8242 227.4184 14.25190071780227
GCOM-W1 (SHIZUKU)       
1 38337U 12025A   26115.84401259  .00000509  00000+0  12294-3 0  9996
2 38337  98.1993  57.2026 0001271  94.0637 328.2771 14.57119336741414
NUSTAR                  
1 38358U 12031A   26115.91668980  .00015175  00000+0  89434-3 0  9995
2 38358   6.0262  66.0676 0007387  45.4524 158.5474 15.08285701  4415
NEOSSAT                 
1 39089U 13009D   26115.73528167  .00000125  00000+0  57776-4 0  9999
2 39089  98.4170 297.0176 0011863  47.5187 312.7000 14.35807441689219
BRITE-AUSTRIA           
1 39091U 13009F   26115.48133348  .00000171  00000+0  72827-4 0  9992
2 39091  98.3985 296.2244 0010956  42.9850 317.2191 14.36520130689488
IRIS                    
1 39197U 13033A   26115.63687601  .00000955  00000+0  11572-3 0  9998
2 39197  97.9370 315.0725 0025569 128.9128 231.4373 14.85771907692578
HISAKI (SPRINT-A)       
1 39253U 13049A   26115.69047897  .00000133  00000+0  92065-4 0  9996
2 39253  29.7186 126.9034 0136629 311.2903  47.5975 13.55537782624294
CASSIOPE                
1 39265U 13055A   26115.80515742  .00025369 -40911-6  29655-3 0  9993
2 39265  80.9136 130.1441 0303087 238.1417 118.9992 15.21738812659697
STSAT-3                 
1 39422U 13066G   26115.83682170  .00003288  00000+0  25235-3 0  9996
2 39422  97.6187  86.6084 0008731 192.7871 167.3134 15.02445988676343
SWARM B                 
1 39451U 13067A   26115.82017512  .00003632  00000+0  13085-3 0  9993
2 39451  87.7483 358.2169 0002374  91.3006 268.8515 15.28237647675244
SWARM A                 
1 39452U 13067B   26115.87354007  .00013180  00000+0  23583-3 0  9995
2 39452  87.3305  75.6537 0003694  89.4005 270.7679 15.49842031698145
SWARM C                 
1 39453U 13067C   26115.87347918  .00013419  00000+0  24009-3 0  9998
2 39453  87.3307  74.2349 0003711  89.7083 270.4603 15.49843384698105
BRITE-CA1 (TORONTO)     
1 40020U 14033L   26115.58353226  .00000897  00000+0  14187-3 0  9993
2 40020  97.9656 245.5081 0080064  85.5228 275.5121 14.72595446634477
